{
    "type": "FeatureCollection",
    "name": "goldfields_split",
    "crs": {
        "type": "name",
        "properties": {
            "name": "urn:ogc:def:crs:EPSG::7844"
        }
    },
    "features": [
        {
            "type": "Feature",
            "properties": {
                "fid": 1,
                "set_type": "Test"
            },
            "geometry": {
                "type": "MultiPolygon",
                "coordinates": [
                    [
                        [
                            [
                                120.0,
                                -30.0
                            ],
                            [
                                120.0,
                                -29.0
                            ],
                            [
                                121.5,
                                -29.0
                            ],
                            [
                                121.5,
                                -30.0
                            ],
                            [
                                120.0,
                                -30.0
                            ]
                        ]
                    ]
                ]
            }
        },
        {
            "type": "Feature",
            "properties": {
                "fid": 2,
                "set_type": "Train"
            },
            "geometry": {
                "type": "MultiPolygon",
                "coordinates": [
                    [
                        [
                            [
                                120.5,
                                -30.0
                            ],
                            [
                                123,
                                -30.0
                            ],
                            [
                                123,
                                -31.0
                            ],
                            [
                                122.75,
                                -31.0
                            ],
                            [
                                122.75,
                                -32.1
                            ],
                            [
                                121.5,
                                -32.1
                            ],
                            [
                                121.5,
                                -31.0
                            ],
                            [
                                120.5,
                                -31.0
                            ],
                            [
                                120.5,
                                -30.0
                            ]
                        ]
                    ]
                ]
            }
        }
    ]
}
